[
    {
        "OBJECT_NAME": "STARLINK-1143",
        "OBJECT_ID": "2020-012B",
        "EPOCH": "2025-12-12T06:50:40.336512",
        "MEAN_MOTION": 15.46099778,
        "ECCENTRICITY": 0.00027591,
        "INCLINATION": 53.0526,
        "RA_OF_ASC_NODE": 31.766,
        "ARG_OF_PERICENTER": 183.902,
        "MEAN_ANOMALY": 176.1965,
        "EPHEMERIS_TYPE": 0,
        "CLASSIFICATION_TYPE": "U",
        "NORAD_CAT_ID": 45179,
        "ELEMENT_SET_NO": 999,
        "REV_AT_EPOCH": 32233,
        "BSTAR": 0.0017539519,
        "MEAN_MOTION_DOT": 0.00087817,
        "MEAN_MOTION_DDOT": 0.0
    },
    {
        "OBJECT_NAME": "STARLINK-1202",
        "OBJECT_ID": "2020-012F",
        "EPOCH": "2025-12-12T06:16:39.493344",
        "MEAN_MOTION": 15.06391849,
        "ECCENTRICITY": 0.00017358,
        "INCLINATION": 53.0524,
        "RA_OF_ASC_NODE": 79.1011,
        "ARG_OF_PERICENTER": 96.5093,
        "MEAN_ANOMALY": 263.6093,
        "EPHEMERIS_TYPE": 0,
        "CLASSIFICATION_TYPE": "U",
        "NORAD_CAT_ID": 45183,
        "ELEMENT_SET_NO": 999,
        "REV_AT_EPOCH": 32166,
        "BSTAR": 7.8927653e-05,
        "MEAN_MOTION_DOT": 8.94e-06,
        "MEAN_MOTION_DDOT": 0.0
    },
    {
        "OBJECT_NAME": "STARLINK-1225",
        "OBJECT_ID": "2020-012K",
        "EPOCH": "2025-12-11T16:12:44.159040",
        "MEAN_MOTION": 15.06364012,
        "ECCENTRICITY": 0.00017911,
        "INCLINATION": 53.0512,
        "RA_OF_ASC_NODE": 81.7276,
        "ARG_OF_PERICENTER": 108.4605,
        "MEAN_ANOMALY": 251.6579,
        "EPHEMERIS_TYPE": 0,
        "CLASSIFICATION_TYPE": "U",
        "NORAD_CAT_ID": 45187,
        "ELEMENT_SET_NO": 999,
        "REV_AT_EPOCH": 32156,
        "BSTAR": 0.0005771366,
        "MEAN_MOTION_DOT": 8.317e-05,
        "MEAN_MOTION_DDOT": 0.0
    },
    {
        "OBJECT_NAME": "STARLINK-1154",
        "OBJECT_ID": "2020-012W",
        "EPOCH": "2025-12-12T05:05:01.216896",
        "MEAN_MOTION": 15.06382767,
        "ECCENTRICITY": 0.0001373,
        "INCLINATION": 53.0567,
        "RA_OF_ASC_NODE": 59.3222,
        "ARG_OF_PERICENTER": 84.9049,
        "MEAN_ANOMALY": 275.2097,
        "EPHEMERIS_TYPE": 0,
        "CLASSIFICATION_TYPE": "U",
        "NORAD_CAT_ID": 45198,
        "ELEMENT_SET_NO": 999,
        "REV_AT_EPOCH": 32187,
        "BSTAR": -3.3300258e-05,
        "MEAN_MOTION_DOT": -7.77e-06,
        "MEAN_MOTION_DDOT": 0.0
    },
    {
        "OBJECT_NAME": "STARLINK-1298",
        "OBJECT_ID": "2020-019BF",
        "EPOCH": "2025-12-12T08:00:13.999968",
        "MEAN_MOTION": 15.60936009,
        "ECCENTRICITY": 0.00062326,
        "INCLINATION": 53.0436,
        "RA_OF_ASC_NODE": 130.0366,
        "ARG_OF_PERICENTER": 93.0971,
        "MEAN_ANOMALY": 8.4886,
        "EPHEMERIS_TYPE": 0,
        "CLASSIFICATION_TYPE": "U",
        "NORAD_CAT_ID": 45413,
        "ELEMENT_SET_NO": 999,
        "REV_AT_EPOCH": 578,
        "BSTAR": 0.0021984707,
        "MEAN_MOTION_DOT": 0.00191706,
        "MEAN_MOTION_DDOT": 0.0
    },
    {
        "OBJECT_NAME": "STARLINK-1318",
        "OBJECT_ID": "2020-019BJ",
        "EPOCH": "2025-12-12T08:00:13.999968",
        "MEAN_MOTION": 15.67877626,
        "ECCENTRICITY": 0.00014585,
        "INCLINATION": 53.0455,
        "RA_OF_ASC_NODE": 119.3962,
        "ARG_OF_PERICENTER": 180.8906,
        "MEAN_ANOMALY": 354.6259,
        "EPHEMERIS_TYPE": 0,
        "CLASSIFICATION_TYPE": "U",
        "NORAD_CAT_ID": 45416,
        "ELEMENT_SET_NO": 999,
        "REV_AT_EPOCH": 585,
        "BSTAR": 0.001137028,
        "MEAN_MOTION_DOT": 0.00129203,
        "MEAN_MOTION_DDOT": 0.0
    },
    {
        "OBJECT_NAME": "STARLINK-3004",
        "OBJECT_ID": "2021-059B",
        "EPOCH": "2025-12-12T07:22:57.709632",
        "MEAN_MOTION": 15.0126225,
        "ECCENTRICITY": 0.00014093,
        "INCLINATION": 97.6613,
        "RA_OF_ASC_NODE": 109.1013,
        "ARG_OF_PERICENTER": 217.5712,
        "MEAN_ANOMALY": 142.5414,
        "EPHEMERIS_TYPE": 0,
        "CLASSIFICATION_TYPE": "U",
        "NORAD_CAT_ID": 48880,
        "ELEMENT_SET_NO": 999,
        "REV_AT_EPOCH": 24569,
        "BSTAR": 0.00020279368,
        "MEAN_MOTION_DOT": 2.547e-05,
        "MEAN_MOTION_DDOT": 0.0
    },
    {
        "OBJECT_NAME": "STARLINK-3096",
        "OBJECT_ID": "2021-082B",
        "EPOCH": "2025-12-11T15:16:10.038720",
        "MEAN_MOTION": 14.98335897,
        "ECCENTRICITY": 0.00032161,
        "INCLINATION": 69.9988,
        "RA_OF_ASC_NODE": 116.4582,
        "ARG_OF_PERICENTER": 270.4684,
        "MEAN_ANOMALY": 89.6107,
        "EPHEMERIS_TYPE": 0,
        "CLASSIFICATION_TYPE": "U",
        "NORAD_CAT_ID": 49131,
        "ELEMENT_SET_NO": 999,
        "REV_AT_EPOCH": 23377,
        "BSTAR": 7.4338524e-05,
        "MEAN_MOTION_DOT": 7.94e-06,
        "MEAN_MOTION_DDOT": 0.0
    },
    {
        "OBJECT_NAME": "STARLINK-3090",
        "OBJECT_ID": "2021-082C",
        "EPOCH": "2025-12-12T04:23:55.627008",
        "MEAN_MOTION": 14.98331763,
        "ECCENTRICITY": 0.0002679,
        "INCLINATION": 69.9979,
        "RA_OF_ASC_NODE": 154.9616,
        "ARG_OF_PERICENTER": 273.4239,
        "MEAN_ANOMALY": 86.6614,
        "EPHEMERIS_TYPE": 0,
        "CLASSIFICATION_TYPE": "U",
        "NORAD_CAT_ID": 49132,
        "ELEMENT_SET_NO": 999,
        "REV_AT_EPOCH": 23287,
        "BSTAR": 5.7771719e-05,
        "MEAN_MOTION_DOT": 5.96e-06,
        "MEAN_MOTION_DDOT": 0.0
    },
    {
        "OBJECT_NAME": "STARLINK-3055",
        "OBJECT_ID": "2021-082H",
        "EPOCH": "2025-12-11T20:15:11.881728",
        "MEAN_MOTION": 14.97526371,
        "ECCENTRICITY": 0.0003036,
        "INCLINATION": 69.999,
        "RA_OF_ASC_NODE": 136.4515,
        "ARG_OF_PERICENTER": 270.3845,
        "MEAN_ANOMALY": 89.6966,
        "EPHEMERIS_TYPE": 0,
        "CLASSIFICATION_TYPE": "U",
        "NORAD_CAT_ID": 49137,
        "ELEMENT_SET_NO": 999,
        "REV_AT_EPOCH": 23330,
        "BSTAR": 2.6382e-05,
        "MEAN_MOTION_DOT": 2.16e-06,
        "MEAN_MOTION_DDOT": 0.0
    },
    {
        "OBJECT_NAME": "STARLINK-3083",
        "OBJECT_ID": "2021-082AE",
        "EPOCH": "2025-12-12T06:49:54.684480",
        "MEAN_MOTION": 15.53572203,
        "ECCENTRICITY": 0.00087835,
        "INCLINATION": 69.9735,
        "RA_OF_ASC_NODE": 55.5865,
        "ARG_OF_PERICENTER": 309.5971,
        "MEAN_ANOMALY": 50.444,
        "EPHEMERIS_TYPE": 0,
        "CLASSIFICATION_TYPE": "U",
        "NORAD_CAT_ID": 49158,
        "ELEMENT_SET_NO": 999,
        "REV_AT_EPOCH": 23643,
        "BSTAR": 0.001100265,
        "MEAN_MOTION_DOT": 0.0007086,
        "MEAN_MOTION_DDOT": 0.0
    },
    {
        "OBJECT_NAME": "STARLINK-4362",
        "OBJECT_ID": "2022-077A",
        "EPOCH": "2025-12-12T06:16:38.517888",
        "MEAN_MOTION": 15.01261476,
        "ECCENTRICITY": 0.00022871,
        "INCLINATION": 97.6037,
        "RA_OF_ASC_NODE": 164.6165,
        "ARG_OF_PERICENTER": 119.0951,
        "MEAN_ANOMALY": 241.0503,
        "EPHEMERIS_TYPE": 0,
        "CLASSIFICATION_TYPE": "U",
        "NORAD_CAT_ID": 53043,
        "ELEMENT_SET_NO": 999,
        "REV_AT_EPOCH": 18780,
        "BSTAR": 9.253435e-05,
        "MEAN_MOTION_DOT": 1.13e-05,
        "MEAN_MOTION_DDOT": 0.0
    }
]