STARLINK-1143           
1 45179U 20012B   25346.28518908  .00087817  00000+0  17540-2 0  9991
2 45179  53.0526  31.7660 0002759 183.9020 176.1965 15.46099778322332
STARLINK-1202           
1 45183U 20012F   25346.26156821  .00000894  00000+0  78928-4 0  9995
2 45183  53.0524  79.1011 0001735  96.5093 263.6093 15.06391849321662
STARLINK-1225           
1 45187U 20012K   25345.67551110  .00008317  00000+0  57714-3 0  9990
2 45187  53.0512  81.7276 0001791 108.4605 251.6579 15.06364012321566
STARLINK-1154           
1 45198U 20012W   25346.21181964 -.00000777  00000+0 -33300-4 0  9999
2 45198  53.0567  59.3222 0001373  84.9049 275.2097 15.06382767321874
STARLINK-1298           
1 45413U 20019BF  25346.33349537  .00191706  00000+0  21985-2 0  9996
2 45413  53.0436 130.0366 0006232  93.0971   8.4886 15.60936009  5784
STARLINK-1318           
1 45416U 20019BJ  25346.33349537  .00129203  00000+0  11370-2 0  9999
2 45416  53.0455 119.3962 0001458 180.8906 354.6259 15.67877626  5852
STARLINK-3004           
1 48880U 21059B   25346.30761238  .00002547  00000+0  20279-3 0  9995
2 48880  97.6613 109.1013 0001409 217.5712 142.5414 15.01262250245697
STARLINK-3096           
1 49131U 21082B   25345.63622730  .00000794  00000+0  74339-4 0  9998
2 49131  69.9988 116.4582 0003216 270.4684  89.6107 14.98335897233779
STARLINK-3090           
1 49132U 21082C   25346.18328272  .00000596  00000+0  57772-4 0  9996
2 49132  69.9979 154.9616 0002679 273.4239  86.6614 14.98331763232874
STARLINK-3055           
1 49137U 21082H   25345.84388752  .00000216  00000+0  26382-4 0  9994
2 49137  69.9990 136.4515 0003036 270.3845  89.6966 14.97526371233304
STARLINK-3083           
1 49158U 21082AE  25346.28466070  .00070860  00000+0  11003-2 0  9990
2 49158  69.9735  55.5865 0008783 309.5971  50.4440 15.53572203236430
STARLINK-4362           
1 53043U 22077A   25346.26155692  .00001130  00000+0  92534-4 0  9990
2 53043  97.6037 164.6165 0002287 119.0951 241.0503 15.01261476187805
